{"type": "FeatureCollection", "features": [{"type": "Feature", "properties": {"name": "Вариант через Зашеек"}, "geometry": {"type": "LineString", "coordinates": [[31.287541, 65.752813], [31.287155, 65.753049], [31.287026, 65.753349], [31.289365, 65.754444], [31.289494, 65.754444], [31.290438, 65.754787], [31.292798, 65.75586], [31.294064, 65.756353], [31.295652, 65.756783], [31.297004, 65.75704], [31.297583, 65.757126], [31.299042, 65.757255], [31.299686, 65.757362], [31.314985, 65.758499], [31.31623, 65.758692], [31.317603, 65.7588], [31.318955, 65.758864], [31.320264, 65.758843], [31.321594, 65.758928], [31.323225, 65.7591], [31.325285, 65.759379], [31.327881, 65.759658], [31.33037, 65.760087], [31.332881, 65.760602], [31.335241, 65.761224], [31.341657, 65.763284], [31.34288, 65.763563], [31.345047, 65.764336], [31.346142, 65.764658], [31.347644, 65.765022], [31.350283, 65.765816], [31.352665, 65.766589], [31.353738, 65.766868], [31.355798, 65.767705], [31.356742, 65.767962], [31.358008, 65.768456], [31.360154, 65.769164], [31.36142, 65.769528], [31.362128, 65.769679], [31.366076, 65.770859], [31.369316, 65.772082], [31.370968, 65.77264], [31.372578, 65.773112], [31.374487, 65.773777], [31.37629, 65.774271], [31.378028, 65.774807], [31.379251, 65.775129], [31.383414, 65.775816], [31.390023, 65.776202], [31.3941, 65.776481], [31.395516, 65.776524], [31.397533, 65.776674], [31.398198, 65.776803], [31.404185, 65.777146], [31.405837, 65.777318], [31.407339, 65.777554], [31.409292, 65.778069], [31.41206, 65.779013], [31.415085, 65.780172], [31.415622, 65.780408], [31.416308, 65.780923], [31.416673, 65.78133], [31.417102, 65.781974], [31.417896, 65.782682], [31.418604, 65.783218], [31.419484, 65.783776], [31.421673, 65.784806], [31.422359, 65.785257], [31.422016, 65.785772], [31.421372, 65.786287], [31.421244, 65.786523], [31.421201, 65.787489], [31.421287, 65.788132], [31.421458, 65.790793], [31.421351, 65.790986], [31.421201, 65.791115], [31.420514, 65.791995], [31.420021, 65.79251], [31.418583, 65.794334], [31.418368, 65.794505], [31.416845, 65.795278], [31.416673, 65.795428], [31.416609, 65.795557], [31.416609, 65.795707], [31.416974, 65.796265], [31.417145, 65.796651], [31.417875, 65.797531], [31.418046, 65.797638], [31.418712, 65.797853], [31.418926, 65.79796], [31.419119, 65.798132], [31.419162, 65.798389], [31.419076, 65.798282], [31.419098, 65.798411], [31.419012, 65.798389], [31.419076, 65.798411], [31.419033, 65.798453], [31.419076, 65.798346], [31.419119, 65.798411], [31.419055, 65.798411], [31.419205, 65.798496], [31.419463, 65.799054], [31.419506, 65.799312], [31.419441, 65.799462], [31.419291, 65.799612], [31.418454, 65.800041], [31.417489, 65.800256], [31.416094, 65.800385], [31.415557, 65.800492], [31.415257, 65.800706], [31.415257, 65.800857], [31.41545, 65.801157], [31.415472, 65.801307], [31.415472, 65.801458], [31.415321, 65.802015], [31.415321, 65.802337], [31.415278, 65.802466], [31.415407, 65.803453], [31.41575, 65.803796], [31.416373, 65.804097], [31.417167, 65.804376], [31.418347, 65.804698], [31.420063, 65.805041], [31.4209, 65.805277], [31.42163, 65.805577], [31.422295, 65.805942], [31.42354, 65.806994], [31.423625, 65.807187], [31.424977, 65.808174], [31.4256, 65.80886], [31.425836, 65.809418], [31.425857, 65.811457], [31.425921, 65.812251], [31.425878, 65.813517], [31.425964, 65.813903], [31.426286, 65.814332], [31.427209, 65.81519], [31.42826, 65.816285], [31.428368, 65.816478], [31.428561, 65.816607], [31.430664, 65.819096], [31.431264, 65.819611], [31.431608, 65.819782], [31.43238, 65.820083], [31.43311, 65.820233], [31.435813, 65.820297], [31.436972, 65.820469], [31.437659, 65.820619], [31.437959, 65.820769], [31.438367, 65.821048], [31.438689, 65.821478], [31.438817, 65.822014], [31.438968, 65.823902], [31.439054, 65.824589], [31.439161, 65.825061], [31.439397, 65.825361], [31.439933, 65.825855], [31.441929, 65.827142], [31.44313, 65.8277], [31.44401, 65.828151], [31.445791, 65.829267], [31.446328, 65.829825], [31.447315, 65.830983], [31.447808, 65.831734], [31.447958, 65.832314], [31.44783, 65.832893], [31.447486, 65.833859], [31.446821, 65.834674], [31.445598, 65.835747], [31.445577, 65.83594], [31.445684, 65.836326], [31.446478, 65.836777], [31.447014, 65.836906], [31.447744, 65.836991], [31.448817, 65.837056], [31.45049, 65.837034], [31.45313, 65.837142], [31.45725, 65.837227], [31.462035, 65.837421], [31.467549, 65.837592], [31.469202, 65.837614], [31.478879, 65.836798], [31.482462, 65.836519], [31.485488, 65.836326], [31.488814, 65.836047], [31.491196, 65.83609], [31.493449, 65.836283], [31.494865, 65.836305], [31.495895, 65.836219], [31.506624, 65.83461], [31.515121, 65.833236], [31.515936, 65.833043], [31.51643, 65.832829], [31.516687, 65.832636], [31.516709, 65.832571], [31.516838, 65.831799], [31.516859, 65.831348], [31.517031, 65.83094], [31.517138, 65.830382], [31.517138, 65.830146], [31.517095, 65.830082], [31.517074, 65.829202], [31.517138, 65.828966], [31.517524, 65.828687], [31.518468, 65.82828], [31.520957, 65.827443], [31.521558, 65.827185], [31.52261, 65.826799], [31.522974, 65.826713], [31.523039, 65.826649], [31.526193, 65.825554], [31.527416, 65.825276], [31.532437, 65.824718], [31.534626, 65.824374], [31.535463, 65.824353], [31.536321, 65.824417], [31.536815, 65.824503], [31.537222, 65.824653], [31.537973, 65.825125], [31.539089, 65.82622], [31.539647, 65.826649], [31.53999, 65.826799], [31.540613, 65.826971], [31.5419, 65.827014], [31.546106, 65.827357], [31.546685, 65.827357], [31.54632, 65.827529], [31.546664, 65.827357], [31.549067, 65.827572], [31.550505, 65.827915], [31.550891, 65.828065], [31.552243, 65.828709], [31.554882, 65.830104], [31.559967, 65.832657], [31.561341, 65.833408], [31.562435, 65.834052], [31.567199, 65.836476], [31.571061, 65.838493], [31.572799, 65.839352], [31.573743, 65.839609], [31.574988, 65.839888], [31.576168, 65.84006], [31.578078, 65.840446], [31.579151, 65.840596], [31.586232, 65.841862], [31.58709, 65.841927], [31.603848, 65.842656], [31.605072, 65.842849], [31.605801, 65.843064], [31.606423, 65.843343], [31.607561, 65.844008], [31.607689, 65.844115], [31.607754, 65.844351], [31.607625, 65.844308], [31.607861, 65.844223], [31.608462, 65.844459], [31.609234, 65.844931], [31.609942, 65.845574], [31.610178, 65.846047], [31.610393, 65.846647], [31.610543, 65.847205], [31.610565, 65.847506], [31.610736, 65.848042], [31.610801, 65.848664], [31.610672, 65.848922], [31.610693, 65.849072], [31.610651, 65.849179], [31.610693, 65.849287], [31.610651, 65.850746], [31.610887, 65.851261], [31.610865, 65.851368], [31.612153, 65.852334], [31.613161, 65.853149], [31.613826, 65.853557], [31.614341, 65.853707], [31.615543, 65.853836], [31.616036, 65.854007], [31.616401, 65.854243], [31.616787, 65.854758], [31.617238, 65.855059], [31.619105, 65.855853], [31.621551, 65.856647], [31.622431, 65.85684], [31.623697, 65.857033], [31.62477, 65.85714], [31.628482, 65.857183], [31.628911, 65.857247], [31.63007, 65.857247], [31.638975, 65.857483], [31.653695, 65.857655], [31.659252, 65.857677], [31.660647, 65.85772], [31.6632, 65.857913], [31.664617, 65.858192], [31.667792, 65.859028], [31.669144, 65.859479], [31.677384, 65.861882], [31.679594, 65.862483], [31.683092, 65.863535], [31.689443, 65.865358], [31.691739, 65.865938], [31.69382, 65.866624], [31.698348, 65.867933], [31.699507, 65.868234], [31.699764, 65.868384], [31.700966, 65.86862], [31.701717, 65.868813], [31.702661, 65.869199], [31.70324, 65.869757], [31.703433, 65.870144], [31.703219, 65.871624], [31.702961, 65.872761], [31.702919, 65.873899], [31.702768, 65.874349], [31.702768, 65.874628], [31.702618, 65.875186], [31.702511, 65.876066], [31.702618, 65.876795], [31.702897, 65.877031], [31.703476, 65.877396], [31.703841, 65.877504], [31.706266, 65.877976], [31.707232, 65.878126], [31.708219, 65.878212], [31.715128, 65.878233], [31.721351, 65.878169], [31.72384, 65.87819], [31.730599, 65.87789], [31.733539, 65.878147], [31.734097, 65.878255], [31.737101, 65.879006], [31.737937, 65.879113], [31.740834, 65.879177], [31.744203, 65.879392], [31.744868, 65.879563], [31.746349, 65.880572], [31.746521, 65.880722], [31.746714, 65.88098], [31.746821, 65.881237], [31.7471, 65.881623], [31.747293, 65.881752], [31.74755, 65.881859], [31.747851, 65.881902], [31.750597, 65.881924], [31.754245, 65.882053], [31.754717, 65.882031], [31.757206, 65.882138], [31.760597, 65.882203], [31.764695, 65.882353], [31.769995, 65.882482], [31.771798, 65.882632], [31.77257, 65.882761], [31.773471, 65.883104], [31.774072, 65.883512], [31.775274, 65.885464], [31.775896, 65.886602], [31.776475, 65.887503], [31.776583, 65.887589], [31.77699, 65.887782], [31.777977, 65.888147], [31.790101, 65.891387], [31.793899, 65.892502], [31.796431, 65.893125], [31.799628, 65.894026], [31.800014, 65.894198], [31.806709, 65.895914], [31.811065, 65.897073], [31.812503, 65.897416], [31.818683, 65.899133], [31.820099, 65.899412], [31.819906, 65.899562], [31.819434, 65.900098], [31.819133, 65.900528], [31.81909, 65.901171], [31.819369, 65.901987], [31.819584, 65.902952], [31.819627, 65.90351], [31.819906, 65.905162], [31.820013, 65.905248], [31.820013, 65.905291], [31.819927, 65.905313], [31.820056, 65.905398], [31.820013, 65.905956], [31.820077, 65.906107], [31.820292, 65.906214], [31.819906, 65.9063], [31.819477, 65.906815], [31.818704, 65.907566], [31.818575, 65.907823], [31.818554, 65.908102], [31.818747, 65.90866], [31.819155, 65.909368], [31.819112, 65.909797], [31.818833, 65.910162], [31.818211, 65.910613], [31.817481, 65.911256], [31.817417, 65.911385], [31.816902, 65.911922], [31.8157, 65.913016], [31.815078, 65.913467], [31.814155, 65.913874], [31.811838, 65.914582], [31.810314, 65.915162], [31.809756, 65.915655], [31.809499, 65.916213], [31.808619, 65.917737], [31.807932, 65.91881], [31.807482, 65.919689], [31.806259, 65.921513], [31.805508, 65.923165], [31.805229, 65.92368], [31.8048, 65.92426], [31.804521, 65.925032], [31.804285, 65.925333], [31.804177, 65.925783], [31.804006, 65.925955], [31.803405, 65.927028], [31.802911, 65.928058], [31.802847, 65.928315], [31.802225, 65.929388], [31.801645, 65.930118], [31.801238, 65.930847], [31.800808, 65.931405], [31.800508, 65.931684], [31.798598, 65.9325], [31.797912, 65.932736], [31.797139, 65.933186], [31.796538, 65.933808], [31.794371, 65.935847], [31.793427, 65.936898], [31.792612, 65.937714], [31.792397, 65.937885], [31.791882, 65.938465], [31.791367, 65.938851], [31.79111, 65.939237], [31.790487, 65.939731], [31.79008, 65.940267], [31.789994, 65.940482], [31.790316, 65.940889], [31.791281, 65.94164], [31.792504, 65.942778], [31.792783, 65.9431], [31.794199, 65.944194], [31.794264, 65.944258], [31.794328, 65.94443], [31.794328, 65.944602], [31.794264, 65.944773], [31.794157, 65.944924], [31.792805, 65.946104], [31.792075, 65.946812], [31.79111, 65.947649], [31.790637, 65.948185], [31.789693, 65.949043], [31.788942, 65.949816], [31.788084, 65.950545], [31.787762, 65.950975], [31.787869, 65.951404], [31.787891, 65.951983], [31.787955, 65.952133], [31.787912, 65.952927], [31.787977, 65.953099], [31.787955, 65.953185], [31.788063, 65.953378], [31.788063, 65.953764], [31.788234, 65.954258], [31.788213, 65.954794], [31.788277, 65.955052], [31.78832, 65.956103], [31.788213, 65.956725], [31.78802, 65.957283], [31.787655, 65.95782], [31.78714, 65.95842], [31.786367, 65.959815], [31.78611, 65.96003], [31.785681, 65.960609], [31.785423, 65.961103], [31.785359, 65.961489], [31.785423, 65.961575], [31.785831, 65.961897], [31.787397, 65.962819], [31.78832, 65.96342], [31.788771, 65.963763], [31.789693, 65.964278], [31.789929, 65.964514], [31.79111, 65.96518], [31.791839, 65.965652], [31.792483, 65.966016], [31.793212, 65.966574], [31.793942, 65.967046], [31.794242, 65.967197], [31.794435, 65.967347], [31.794736, 65.967883], [31.794843, 65.968248], [31.794843, 65.96857], [31.795036, 65.969535], [31.795079, 65.969965], [31.795208, 65.970523], [31.795187, 65.970844], [31.795208, 65.971038], [31.795337, 65.971381], [31.795337, 65.972089], [31.795508, 65.972711], [31.795594, 65.973376], [31.795809, 65.974406], [31.795938, 65.975286], [31.795895, 65.975587], [31.795873, 65.976295], [31.796216, 65.977625], [31.796238, 65.977861], [31.796388, 65.978312], [31.796367, 65.979213], [31.796259, 65.980672], [31.79641, 65.980929], [31.796281, 65.982474], [31.796281, 65.983612], [31.796131, 65.98432], [31.796002, 65.985736], [31.796045, 65.986251], [31.796045, 65.986873], [31.795938, 65.98741], [31.79553, 65.987946], [31.7948, 65.98859], [31.793212, 65.989792], [31.792869, 65.990178], [31.792569, 65.990714], [31.792461, 65.991015], [31.792268, 65.991358], [31.791839, 65.991894], [31.791539, 65.992538], [31.791217, 65.992989], [31.790766, 65.993525], [31.788899, 65.994963], [31.787955, 65.995628], [31.787526, 65.995843], [31.786088, 65.996894], [31.785659, 65.997345], [31.784865, 65.998031], [31.784393, 65.998353], [31.783299, 65.998718], [31.782677, 65.99919], [31.782033, 65.999619], [31.781497, 65.999855], [31.781218, 66.00007], [31.781046, 66.000284], [31.78066, 66.000585], [31.779587, 66.00095], [31.77845, 66.00125], [31.775553, 66.001894], [31.774458, 66.002216], [31.773428, 66.002602], [31.771862, 66.003696], [31.770961, 66.004275], [31.770017, 66.004962], [31.769695, 66.005134], [31.76845, 66.00537], [31.766498, 66.005541], [31.76506, 66.005735], [31.76182, 66.006078], [31.760017, 66.006121], [31.757571, 66.006314], [31.754653, 66.006421], [31.752529, 66.006593], [31.75034, 66.0067], [31.747829, 66.006872], [31.743259, 66.007215], [31.741521, 66.00728], [31.740555, 66.007258], [31.739676, 66.007387], [31.738688, 66.007473], [31.738281, 66.00758], [31.737766, 66.007816], [31.737315, 66.008116], [31.734933, 66.009425], [31.734976, 66.009425], [31.734933, 66.009447], [31.734976, 66.009404], [31.734912, 66.009425], [31.730191, 66.012172], [31.72856, 66.013052], [31.727015, 66.014017], [31.7262, 66.014425], [31.725149, 66.01479], [31.723883, 66.014961], [31.72296, 66.015047], [31.719269, 66.015069], [31.718668, 66.015112], [31.715707, 66.015133], [31.711523, 66.015348], [31.709914, 66.015369], [31.704571, 66.015669], [31.703155, 66.015669], [31.701159, 66.015841], [31.697726, 66.015884], [31.693305, 66.016034], [31.69234, 66.016142], [31.691954, 66.016313], [31.691589, 66.016571], [31.690859, 66.017408], [31.690301, 66.017837], [31.689636, 66.018073], [31.68837, 66.018287], [31.68292, 66.018716], [31.680366, 66.018995], [31.679894, 66.019081], [31.678242, 66.019167], [31.675946, 66.019489], [31.67277, 66.019704], [31.670668, 66.019961], [31.669487, 66.020047], [31.665325, 66.020497], [31.662836, 66.020691], [31.661934, 66.020819], [31.653609, 66.021613], [31.651957, 66.021527], [31.650562, 66.021399], [31.650133, 66.02142], [31.648201, 66.021334], [31.647, 66.021055], [31.64479, 66.020776], [31.643459, 66.020562], [31.642086, 66.02054], [31.640155, 66.020669], [31.638867, 66.020862], [31.637773, 66.021163], [31.637601, 66.02127], [31.637279, 66.02127], [31.636421, 66.021484], [31.63434, 66.022236], [31.633954, 66.022407], [31.630971, 66.024403], [31.629984, 66.024789], [31.629104, 66.025068], [31.628975, 66.025154], [31.628825, 66.025497], [31.628525, 66.025883], [31.628117, 66.026184], [31.625714, 66.027085], [31.624662, 66.027428], [31.623568, 66.027578], [31.62374, 66.027621], [31.623933, 66.027578], [31.623568, 66.027557], [31.623482, 66.027514], [31.623697, 66.027578], [31.621315, 66.027707], [31.620242, 66.027664], [31.61668, 66.027321], [31.613032, 66.027063], [31.610629, 66.026849], [31.605629, 66.02657], [31.604685, 66.026484], [31.599836, 66.026291], [31.597261, 66.026334], [31.59518, 66.026441], [31.593849, 66.02657], [31.592347, 66.026785], [31.587712, 66.027149], [31.586832, 66.027321], [31.585824, 66.027643], [31.584408, 66.028222], [31.584129, 66.028415], [31.583807, 66.02878], [31.583507, 66.029016], [31.582884, 66.029402], [31.582283, 66.02966], [31.581082, 66.029982], [31.580674, 66.030132], [31.579859, 66.030561], [31.579344, 66.030904], [31.578207, 66.031913], [31.578035, 66.032449], [31.578121, 66.03305], [31.578164, 66.03393], [31.578292, 66.034338], [31.578571, 66.034638], [31.580245, 66.035818], [31.580395, 66.03629], [31.580395, 66.03702], [31.580481, 66.0379], [31.580438, 66.038479], [31.580331, 66.038629], [31.57988, 66.038908], [31.578185, 66.039745], [31.577112, 66.040131], [31.576554, 66.04026], [31.575911, 66.040496], [31.575052, 66.040732], [31.57119, 66.041955], [31.569151, 66.042749], [31.567821, 66.043178], [31.56531, 66.044122], [31.563808, 66.044573], [31.560826, 66.045581], [31.560139, 66.045903], [31.55986, 66.046139], [31.559474, 66.046311], [31.558444, 66.046912], [31.557972, 66.047234], [31.557543, 66.047405], [31.557006, 66.047684], [31.55632, 66.048135], [31.555783, 66.048371], [31.554839, 66.048521], [31.551814, 66.048671], [31.55029, 66.048693], [31.54675, 66.048907], [31.544046, 66.048993], [31.543016, 66.049079], [31.540484, 66.049186], [31.539368, 66.049401], [31.537566, 66.050066], [31.537201, 66.050302], [31.534969, 66.051268], [31.533167, 66.05189], [31.532073, 66.052341], [31.5316, 66.052598], [31.530206, 66.053092], [31.529111, 66.053521], [31.528339, 66.053886], [31.52733, 66.05425], [31.525099, 66.055173], [31.524562, 66.055452], [31.524112, 66.055624], [31.52364, 66.055881], [31.52261, 66.056246], [31.520743, 66.057018], [31.519713, 66.057405], [31.517825, 66.05822], [31.515507, 66.059164], [31.51452, 66.059486], [31.514177, 66.059636], [31.513941, 66.059851], [31.513855, 66.060001], [31.513876, 66.060216], [31.513855, 66.060645], [31.513426, 66.061825], [31.51319, 66.06234], [31.512782, 66.063499], [31.512546, 66.064035], [31.512482, 66.064464], [31.512289, 66.065022], [31.512181, 66.065172], [31.511495, 66.065644], [31.509606, 66.066546], [31.508619, 66.066975], [31.507589, 66.06734], [31.504349, 66.068756], [31.503684, 66.068992], [31.503384, 66.069163], [31.502997, 66.069678], [31.50304, 66.06985], [31.503212, 66.070236], [31.503105, 66.070365], [31.503255, 66.070773], [31.503512, 66.071824], [31.503727, 66.072425], [31.50377, 66.072811], [31.503899, 66.073112], [31.504542, 66.073519], [31.505272, 66.07382], [31.506495, 66.074163], [31.507439, 66.074571], [31.507954, 66.074893], [31.509392, 66.076073], [31.509585, 66.076159], [31.510143, 66.076545], [31.510293, 66.076738], [31.510357, 66.077081], [31.510314, 66.077189], [31.509885, 66.077704], [31.509757, 66.078025], [31.509671, 66.078111], [31.509413, 66.078583], [31.50907, 66.079013], [31.508812, 66.07957], [31.508383, 66.080171], [31.508018, 66.080879], [31.507375, 66.081845], [31.50716, 66.082381], [31.507267, 66.082574], [31.507868, 66.083068], [31.508319, 66.083519], [31.508555, 66.083862], [31.508684, 66.084355], [31.508834, 66.084527], [31.509091, 66.085557], [31.509242, 66.086716], [31.509778, 66.087724], [31.510014, 66.088733], [31.510035, 66.08899], [31.509799, 66.089226], [31.509606, 66.089355], [31.508941, 66.089677], [31.508405, 66.089999], [31.50804, 66.090278], [31.50774, 66.090664], [31.507611, 66.091587], [31.507439, 66.091994], [31.507182, 66.092273], [31.506838, 66.092509], [31.506044, 66.093003], [31.505122, 66.093475], [31.504993, 66.093604], [31.504907, 66.09384], [31.504971, 66.094076], [31.505315, 66.094526], [31.50598, 66.094977], [31.505916, 66.095063], [31.505851, 66.095084], [31.506195, 66.095535], [31.506924, 66.096157], [31.506946, 66.096243], [31.506903, 66.096264], [31.507074, 66.096501], [31.507225, 66.096908], [31.507461, 66.097209], [31.507611, 66.097337], [31.508254, 66.097745], [31.508684, 66.097874], [31.509284, 66.097981], [31.509628, 66.09811], [31.509993, 66.098346], [31.510014, 66.098496], [31.509993, 66.098711], [31.5101, 66.099033], [31.5101, 66.099247], [31.509864, 66.099998], [31.509606, 66.100341], [31.508769, 66.101286], [31.508662, 66.101479], [31.508662, 66.101822], [31.508748, 66.101994], [31.509606, 66.102745], [31.509628, 66.102895], [31.509306, 66.10341], [31.508126, 66.104483], [31.507718, 66.104805], [31.506495, 66.105405], [31.50583, 66.105663], [31.503899, 66.106156], [31.503512, 66.106328], [31.502118, 66.106779], [31.499671, 66.107315], [31.498899, 66.107659], [31.498448, 66.108131], [31.498105, 66.108431], [31.497011, 66.109332], [31.496174, 66.109954], [31.495401, 66.110856], [31.494929, 66.111285], [31.494307, 66.111671], [31.494092, 66.111907], [31.493749, 66.112165], [31.492354, 66.113559], [31.492354, 66.113602], [31.492526, 66.113559], [31.492505, 66.113581], [31.492397, 66.113538], [31.49229, 66.113688], [31.491131, 66.114504], [31.489908, 66.115533], [31.489264, 66.116006], [31.488685, 66.116521], [31.488513, 66.116757], [31.488556, 66.117014], [31.48905, 66.117808], [31.489779, 66.118881], [31.490037, 66.119439], [31.490788, 66.119911], [31.491625, 66.120233], [31.492376, 66.120447], [31.493964, 66.121005], [31.494951, 66.121391], [31.497504, 66.122507], [31.497697, 66.122636], [31.498019, 66.123044], [31.498706, 66.123451], [31.499457, 66.124524], [31.499779, 66.124889], [31.500658, 66.12549], [31.50098, 66.125962], [31.500701, 66.126584], [31.500401, 66.127571], [31.49995, 66.128472], [31.499693, 66.128837], [31.4995, 66.129202], [31.499435, 66.129588], [31.499457, 66.130039], [31.499521, 66.130232], [31.499564, 66.131305], [31.499929, 66.13373], [31.499907, 66.134245], [31.499779, 66.134416], [31.499092, 66.13491], [31.498513, 66.135146], [31.496667, 66.136305], [31.494865, 66.13697], [31.493041, 66.137227], [31.492891, 66.137292], [31.491732, 66.138085], [31.491367, 66.138386], [31.491239, 66.138772], [31.491281, 66.138965], [31.491668, 66.13963], [31.492011, 66.139931], [31.492097, 66.140339], [31.491818, 66.140832], [31.491131, 66.141905], [31.490895, 66.142441], [31.490359, 66.143085], [31.49008, 66.143321], [31.489779, 66.143815], [31.489157, 66.144287], [31.488149, 66.144823], [31.487634, 66.145059], [31.487462, 66.145188], [31.487398, 66.145338], [31.487419, 66.145553], [31.487569, 66.145832], [31.487698, 66.146175], [31.487956, 66.146647], [31.48802, 66.146862], [31.488041, 66.147119], [31.487956, 66.147248], [31.487977, 66.14742], [31.488041, 66.147505], [31.487956, 66.147892], [31.48802, 66.147999], [31.488471, 66.14845], [31.488642, 66.148557], [31.488964, 66.148728], [31.494028, 66.149823], [31.495766, 66.150145], [31.496367, 66.150359], [31.497526, 66.150917], [31.497697, 66.151175], [31.497676, 66.151368], [31.49759, 66.151561], [31.49671, 66.152462], [31.496946, 66.152441], [31.497032, 66.152398], [31.496775, 66.152441], [31.496753, 66.152376], [31.49568, 66.15317], [31.494994, 66.153793], [31.494994, 66.153921], [31.495294, 66.154243], [31.496388, 66.154758], [31.49862, 66.155917], [31.498942, 66.156046], [31.499714, 66.156475], [31.499972, 66.156925], [31.499972, 66.157118], [31.499693, 66.157462], [31.499392, 66.157998], [31.499156, 66.158535], [31.499006, 66.158792], [31.499006, 66.158985], [31.498405, 66.160187], [31.498084, 66.160981], [31.498084, 66.161088], [31.497676, 66.161775], [31.496903, 66.162826], [31.496131, 66.163534], [31.494758, 66.164629], [31.493041, 66.16495], [31.491754, 66.165122], [31.487634, 66.165487], [31.484436, 66.165873], [31.481969, 66.166088], [31.481325, 66.166195], [31.480703, 66.166217], [31.479051, 66.166431], [31.47742, 66.166302], [31.476862, 66.166195], [31.475059, 66.166045], [31.474223, 66.165916], [31.472785, 66.165852], [31.472206, 66.165766], [31.471025, 66.165702], [31.469995, 66.165551], [31.469631, 66.16553], [31.468708, 66.165594], [31.467635, 66.165508], [31.465897, 66.165508], [31.461112, 66.166002], [31.459782, 66.166002], [31.457014, 66.16553], [31.45019, 66.164672], [31.449697, 66.164693], [31.448066, 66.164908], [31.446864, 66.164993], [31.44313, 66.165358], [31.4421, 66.165508], [31.441028, 66.165787], [31.439697, 66.165959], [31.436693, 66.166109], [31.43577, 66.166109], [31.433861, 66.165852], [31.432487, 66.165594], [31.4315, 66.16553], [31.430578, 66.165573], [31.428518, 66.16583], [31.427381, 66.165895], [31.425921, 66.166045], [31.424763, 66.166131], [31.42399, 66.166131], [31.423282, 66.166217], [31.422531, 66.166388], [31.42045, 66.167354], [31.419978, 66.16744], [31.419548, 66.167461], [31.418948, 66.16744], [31.417767, 66.167332], [31.416287, 66.167268], [31.41457, 66.16686], [31.413433, 66.166431], [31.412382, 66.166238], [31.411266, 66.166131], [31.407876, 66.166195], [31.406438, 66.166367], [31.405215, 66.166667], [31.404592, 66.166753], [31.403219, 66.16686], [31.401395, 66.166882], [31.399314, 66.166774], [31.39837, 66.166903], [31.397104, 66.166946], [31.395838, 66.167075], [31.395151, 66.167075], [31.391804, 66.166753], [31.391289, 66.166603], [31.390366, 66.166259], [31.389057, 66.166131], [31.387748, 66.166238], [31.386482, 66.166517], [31.386053, 66.166689], [31.385581, 66.166925], [31.383264, 66.168319], [31.382856, 66.16862], [31.38262, 66.168877], [31.382234, 66.169135], [31.38174, 66.169349], [31.381289, 66.1695], [31.380689, 66.169778], [31.379079, 66.170336], [31.378371, 66.170615], [31.377727, 66.171044], [31.376762, 66.171517], [31.376655, 66.171624], [31.376483, 66.172139], [31.376419, 66.17216], [31.376783, 66.172032], [31.376698, 66.171989], [31.376676, 66.172032], [31.376783, 66.172032], [31.37674, 66.171989], [31.376461, 66.172032], [31.376461, 66.172117], [31.375818, 66.172568], [31.374831, 66.172976], [31.374123, 66.173126], [31.371912, 66.17377], [31.370561, 66.174349], [31.368629, 66.174564], [31.367149, 66.174628], [31.366076, 66.174778], [31.364982, 66.1751], [31.364767, 66.175615], [31.364853, 66.175722], [31.365282, 66.176151], [31.365883, 66.176602], [31.366012, 66.176752], [31.366441, 66.177439], [31.366934, 66.177997], [31.367385, 66.178211], [31.367964, 66.17864], [31.367535, 66.179048], [31.367042, 66.179306], [31.366934, 66.179606], [31.367042, 66.179949], [31.367535, 66.180529], [31.367514, 66.181087], [31.367406, 66.181258], [31.367406, 66.181344], [31.366977, 66.181881], [31.366441, 66.182138], [31.364703, 66.182653], [31.363329, 66.182889], [31.361806, 66.183297], [31.360175, 66.184069], [31.359703, 66.18452], [31.358973, 66.184777], [31.357643, 66.185035], [31.357107, 66.185099], [31.35642, 66.185099], [31.355905, 66.184992], [31.354403, 66.184069], [31.354103, 66.183941], [31.353695, 66.183833], [31.350927, 66.183447], [31.349403, 66.183168], [31.34833, 66.183039], [31.347708, 66.183018], [31.345734, 66.183061], [31.345069, 66.183018], [31.341485, 66.183061], [31.340026, 66.182953], [31.338224, 66.182589], [31.335177, 66.181902], [31.334769, 66.181859], [31.333224, 66.181494], [31.331872, 66.18113], [31.329469, 66.180658], [31.32595, 66.179864], [31.324212, 66.179585], [31.322259, 66.179349], [31.318955, 66.178791], [31.318225, 66.178748], [31.317625, 66.178834], [31.315007, 66.180164], [31.314406, 66.180529], [31.312475, 66.181366], [31.312174, 66.18158], [31.310586, 66.182503], [31.308076, 66.183769], [31.305758, 66.185056], [31.303548, 66.185679], [31.303269, 66.185722], [31.301295, 66.186344], [31.299428, 66.186859], [31.296811, 66.187739], [31.296446, 66.188103], [31.296231, 66.188447], [31.29606, 66.188597], [31.295952, 66.188854], [31.295652, 66.189241], [31.295394, 66.189455], [31.295008, 66.189992], [31.294815, 66.190142], [31.294236, 66.190807], [31.293635, 66.191386], [31.293313, 66.191622], [31.29297, 66.191966], [31.292841, 66.192137], [31.292498, 66.192781], [31.292347, 66.192888], [31.291961, 66.193017], [31.290674, 66.193189], [31.289794, 66.19321], [31.28827, 66.193339], [31.286404, 66.193403], [31.285459, 66.193554], [31.284258, 66.193833], [31.283271, 66.193983], [31.281898, 66.194069], [31.27664, 66.19409], [31.27531, 66.194047], [31.274559, 66.19394], [31.274087, 66.193918], [31.272757, 66.194004], [31.27222, 66.194004], [31.270546, 66.193682], [31.269044, 66.193146], [31.267757, 66.192631], [31.266276, 66.192159], [31.265912, 66.192009], [31.265568, 66.191816], [31.264817, 66.191537], [31.264045, 66.191064], [31.263422, 66.190614], [31.26265, 66.190185], [31.262135, 66.18997], [31.260569, 66.189047], [31.25971, 66.188425], [31.258294, 66.187567], [31.257758, 66.187309], [31.256535, 66.187052], [31.255333, 66.186966], [31.250226, 66.186387], [31.245892, 66.186], [31.239047, 66.185207], [31.231987, 66.184477], [31.230721, 66.184284], [31.227695, 66.183705], [31.22467, 66.183018], [31.221945, 66.18246], [31.22085, 66.182524], [31.220014, 66.182675], [31.218833, 66.182996], [31.217954, 66.18319], [31.215937, 66.183855], [31.215701, 66.183898], [31.21495, 66.183833], [31.213426, 66.183554], [31.211516, 66.183275], [31.210787, 66.183061], [31.209907, 66.182632], [31.209349, 66.18231], [31.207311, 66.181344], [31.206881, 66.181065], [31.205852, 66.180679], [31.204543, 66.180486], [31.202118, 66.180014], [31.198062, 66.179306], [31.197419, 66.179155], [31.195359, 66.178447], [31.193084, 66.177761], [31.188793, 66.176087], [31.187891, 66.175851], [31.184844, 66.175293], [31.184179, 66.175272], [31.182849, 66.175121], [31.181497, 66.175057], [31.180274, 66.17525], [31.178793, 66.175701], [31.178407, 66.175765], [31.176605, 66.17628], [31.175682, 66.176602], [31.174523, 66.176945], [31.171884, 66.177911], [31.170489, 66.17819], [31.168, 66.178319], [31.165726, 66.178362], [31.165189, 66.178404], [31.16388, 66.178726], [31.16373, 66.178877], [31.162571, 66.179155], [31.161391, 66.179434], [31.160125, 66.179606], [31.158022, 66.179649], [31.155555, 66.179477], [31.154181, 66.179306], [31.153151, 66.179349], [31.151928, 66.179349], [31.150684, 66.179585], [31.149804, 66.180035], [31.149289, 66.180357], [31.148538, 66.180679], [31.148281, 66.180851], [31.148109, 66.181022], [31.148066, 66.181194], [31.148087, 66.181473], [31.148002, 66.181945], [31.148023, 66.182696], [31.148152, 66.182889], [31.148388, 66.183468], [31.14813, 66.183919], [31.147315, 66.184692], [31.146929, 66.186043], [31.14695, 66.186129], [31.147079, 66.186322], [31.147809, 66.186966], [31.147916, 66.187116], [31.148881, 66.187739], [31.149461, 66.188296], [31.149826, 66.188575], [31.150684, 66.189348], [31.15077, 66.189369], [31.151328, 66.189841], [31.15225, 66.190485], [31.153216, 66.191215], [31.15343, 66.191472], [31.153602, 66.192159], [31.153581, 66.192395], [31.153645, 66.192631], [31.153602, 66.193124], [31.153473, 66.193618], [31.153087, 66.194498], [31.153023, 66.194798], [31.152658, 66.195377], [31.152594, 66.195721], [31.152615, 66.195785], [31.152744, 66.195957], [31.153473, 66.196515], [31.153988, 66.197008], [31.154632, 66.197545], [31.15637, 66.198811], [31.156628, 66.199111], [31.156692, 66.199283], [31.156477, 66.199476], [31.155576, 66.200055], [31.156005, 66.201085], [31.156177, 66.201643], [31.156198, 66.201815], [31.156091, 66.202823], [31.156005, 66.20321], [31.15607, 66.203832], [31.155898, 66.204175], [31.155662, 66.204518], [31.155469, 66.204926], [31.155533, 66.205227], [31.155619, 66.205398], [31.155705, 66.205463], [31.155683, 66.205548], [31.155748, 66.205613], [31.155834, 66.205849], [31.156005, 66.206128], [31.156413, 66.206664], [31.156842, 66.207415], [31.157164, 66.207716], [31.157593, 66.208274], [31.15843, 66.209561], [31.158709, 66.209883], [31.159031, 66.210398], [31.159546, 66.211084], [31.159739, 66.211535], [31.159954, 66.211814], [31.160039, 66.21205], [31.160254, 66.212436], [31.160383, 66.212544], [31.16079, 66.213187], [31.161262, 66.213552], [31.162056, 66.213831], [31.163773, 66.214131], [31.166691, 66.214539], [31.167314, 66.214711], [31.168, 66.215161], [31.168279, 66.215483], [31.169266, 66.216878], [31.169288, 66.216985], [31.169738, 66.217629], [31.170361, 66.218402], [31.170768, 66.219024], [31.171584, 66.22014], [31.17139, 66.22059], [31.169781, 66.222307], [31.16858, 66.223508], [31.167614, 66.224667], [31.167399, 66.224817], [31.16682, 66.225418], [31.166176, 66.225869], [31.16506, 66.226277], [31.163172, 66.226706], [31.160597, 66.227135], [31.158859, 66.227371], [31.157743, 66.227821], [31.157615, 66.227929], [31.157507, 66.2281], [31.157507, 66.228401], [31.157593, 66.22868], [31.157915, 66.229259], [31.158258, 66.229495], [31.162464, 66.231405], [31.163494, 66.232027], [31.163966, 66.232478], [31.164224, 66.233143], [31.164503, 66.235332], [31.16446, 66.235911], [31.164267, 66.236512], [31.163902, 66.237027], [31.163237, 66.237563], [31.162893, 66.237778], [31.161842, 66.238314], [31.154053, 66.241662], [31.152422, 66.242305], [31.149568, 66.243571], [31.147508, 66.244365], [31.145534, 66.244966], [31.140942, 66.246018], [31.136286, 66.247176], [31.135599, 66.247305], [31.132059, 66.248185], [31.129527, 66.248721], [31.127767, 66.24885], [31.12545, 66.248871], [31.119763, 66.2487], [31.118197, 66.248678], [31.117339, 66.248721], [31.115858, 66.248936], [31.112832, 66.249794], [31.112167, 66.25003], [31.111588, 66.250095], [31.111266, 66.250202], [31.111266, 66.250137], [31.111309, 66.250202], [31.111266, 66.25018], [31.109571, 66.250588], [31.109077, 66.250803], [31.107683, 66.251253], [31.107447, 66.251403], [31.106889, 66.251532], [31.106717, 66.251747], [31.106739, 66.252348], [31.106138, 66.25282], [31.105408, 66.253249], [31.105172, 66.253442], [31.105301, 66.253614], [31.105451, 66.253657], [31.105515, 66.253742], [31.105494, 66.253721], [31.10543, 66.25385], [31.105408, 66.253807], [31.104485, 66.254193], [31.103885, 66.254601], [31.102962, 66.254987], [31.101932, 66.25533], [31.100881, 66.255867], [31.100559, 66.255867], [31.099336, 66.256274], [31.098048, 66.256532], [31.096246, 66.257025], [31.095688, 66.257648], [31.095623, 66.258184], [31.095409, 66.258527], [31.095602, 66.258785], [31.095774, 66.258871], [31.095666, 66.258785], [31.095774, 66.258935], [31.095559, 66.258849], [31.095645, 66.258892], [31.095709, 66.258978], [31.095731, 66.258892], [31.095795, 66.258999], [31.095645, 66.258957], [31.095774, 66.258978], [31.095688, 66.258935], [31.095752, 66.258957], [31.095645, 66.258957], [31.095731, 66.258935], [31.095666, 66.258957], [31.095709, 66.258957], [31.095516, 66.258763], [31.095666, 66.258935], [31.095623, 66.258935], [31.095688, 66.258957], [31.095516, 66.258935], [31.095259, 66.258978], [31.094014, 66.259257], [31.091568, 66.260115], [31.090989, 66.260287], [31.090173, 66.26063], [31.089594, 66.260823], [31.089358, 66.260866], [31.088457, 66.261167], [31.087512, 66.261381], [31.086525, 66.26166], [31.084272, 66.262068], [31.082942, 66.262218], [31.082298, 66.26224], [31.07938, 66.262862], [31.078758, 66.262926], [31.077513, 66.263162], [31.076548, 66.263291], [31.075389, 66.263506], [31.072685, 66.263785], [31.071805, 66.263935], [31.069853, 66.264171], [31.069166, 66.264192], [31.068673, 66.2643], [31.068286, 66.2643], [31.067256, 66.264407], [31.065819, 66.264621], [31.064252, 66.264772], [31.061935, 66.265093], [31.060969, 66.265179], [31.058287, 66.265501], [31.055605, 66.265651], [31.052622, 66.265887], [31.050991, 66.265973], [31.049704, 66.26593], [31.048738, 66.265952], [31.046636, 66.26593], [31.045498, 66.265844], [31.042773, 66.265759], [31.038846, 66.26578], [31.035177, 66.265909], [31.034619, 66.265973], [31.033332, 66.265973], [31.030607, 66.266166], [31.0258, 66.266338], [31.021895, 66.26696], [31.021037, 66.267196], [31.021037, 66.267239], [31.020951, 66.267304], [31.021659, 66.267218], [31.022024, 66.267239], [31.022174, 66.267389], [31.022217, 66.267347], [31.022067, 66.267239], [31.020972, 66.267239], [31.021015, 66.267218], [31.021015, 66.267282], [31.021079, 66.267239], [31.021187, 66.267282], [31.021165, 66.267261], [31.021187, 66.267239], [31.021079, 66.267218], [31.021165, 66.267304], [31.021037, 66.267239], [31.021208, 66.267325], [31.021208, 66.267261], [31.02123, 66.267304], [31.021101, 66.267239], [31.022045, 66.267239], [31.022345, 66.267518], [31.022388, 66.267647], [31.022496, 66.26769], [31.022539, 66.267776], [31.022732, 66.267819], [31.022753, 66.268012], [31.022839, 66.268226], [31.022818, 66.268269], [31.023032, 66.268462], [31.023118, 66.268977], [31.023225, 66.269149], [31.023333, 66.269449], [31.023611, 66.269857], [31.023783, 66.270308], [31.02389, 66.270436], [31.024041, 66.271037], [31.024427, 66.272003], [31.02447, 66.272368], [31.024384, 66.272561], [31.024041, 66.272754], [31.023719, 66.272775], [31.02241, 66.272604], [31.021079, 66.272518], [31.01947, 66.272754], [31.018741, 66.272818]]}}]}