{"type": "FeatureCollection", "features": [{"type": "Feature", "properties": {"name": "Харлу 53 км", "route": "main"}, "geometry": {"type": "Point", "coordinates": [30.936933859836493, 61.81881433326575]}}, {"type": "Feature", "properties": {"name": "Леппясюрья 116 км", "route": "main"}, "geometry": {"type": "Point", "coordinates": [31.355276648989637, 61.85542010341036]}}, {"type": "Feature", "properties": {"name": "Вегарус 230 км", "route": "main"}, "geometry": {"type": "Point", "coordinates": [32.0991842509689, 62.30025548828016]}}, {"type": "Feature", "properties": {"name": "Поросозеро 337 км", "route": "main"}, "geometry": {"type": "Point", "coordinates": [32.71646816235916, 62.71886479584708]}}, {"type": "Feature", "properties": {"name": "Гимолы 374 км", "route": "main"}, "geometry": {"type": "Point", "coordinates": [32.524447, 62.933017]}}, {"type": "Feature", "properties": {"name": "Суккозеро 423 км", "route": "main"}, "geometry": {"type": "Point", "coordinates": [32.342450708571285, 63.16979051036631]}}, {"type": "Feature", "properties": {"name": "Шалговаара 549 км", "route": "main"}, "geometry": {"type": "Point", "coordinates": [33.249540250843495, 63.51038011957986]}}, {"type": "Feature", "properties": {"name": "Ругозеро 651 км", "route": "main"}, "geometry": {"type": "Point", "coordinates": [32.77612384542372, 64.07969463041206]}}, {"type": "Feature", "properties": {"name": "Новое Юшкозеро 792 км", "route": "main"}, "geometry": {"type": "Point", "coordinates": [32.22479482563384, 64.77095786464216]}}, {"type": "Feature", "properties": {"name": "Луусалми 888 км", "route": "main"}, "geometry": {"type": "Point", "coordinates": [31.562542473562047, 65.05737531152532]}}, {"type": "Feature", "properties": {"name": "Калевала 954 км", "route": "main"}, "geometry": {"type": "Point", "coordinates": [31.177597043949284, 65.20016569756481]}}, {"type": "Feature", "properties": {"name": "Тунгозеро 1028 км", "route": "main"}, "geometry": {"type": "Point", "coordinates": [31.296859149013972, 65.75100057922127]}}, {"type": "Feature", "properties": {"name": "Пяозерский — 1038 км", "route": "main"}, "geometry": {"type": "Point", "coordinates": [31.08102394131518, 65.76688154269077]}}, {"type": "Feature", "properties": {"name": "Софпорог — 1038 км", "route": "alternative"}, "geometry": {"type": "Point", "coordinates": [31.41533612093814, 65.80291069275928]}}, {"type": "Feature", "properties": {"name": "Зареченск 1212 км", "route": "main"}, "geometry": {"type": "Point", "coordinates": [31.425583067164947, 66.68192880800844]}}, {"type": "Feature", "properties": {"name": "Кандалакша 1321 км", "route": "main"}, "geometry": {"type": "Point", "coordinates": [32.42889697789968, 67.12933799290191]}}]}